{
  "norad_id": 68257,
  "name": "STARLINK-36745",
  "history": [
    {
      "epoch": "2026-03-28T20:00:01.999872Z",
      "apogee_km": 328.9831247640923,
      "perigee_km": 327.02761364923117,
      "latitude_deg": 23.49831506940173,
      "longitude_deg": 109.14850139187959,
      "height_km": 328.0117393168599,
      "semi_major_axis_km": 6706.142369206661,
      "eccentricity": 0.0001458,
      "inclination_deg": 53.1592,
      "raan_deg": 216.5059,
      "arg_perigee_deg": 64.0507,
      "mean_anomaly_deg": 325.7577,
      "mean_motion_rev_day": 15.80860719
    },
    {
      "epoch": "2026-03-29T04:00:01.999584Z",
      "apogee_km": 328.74991923476955,
      "perigee_km": 326.9969681047942,
      "latitude_deg": 39.246167094830156,
      "longitude_deg": 110.76054656680547,
      "height_km": 330.7930159785053,
      "semi_major_axis_km": 6706.010443669782,
      "eccentricity": 0.0001307,
      "inclination_deg": 53.1593,
      "raan_deg": 214.8334,
      "arg_perigee_deg": 72.928,
      "mean_anomaly_deg": 55.0306,
      "mean_motion_rev_day": 15.80907369
    },
    {
      "epoch": "2026-03-30T04:00:01.999584Z",
      "apogee_km": 335.69267726169255,
      "perigee_km": 334.4936943505081,
      "latitude_deg": 43.83359193555794,
      "longitude_deg": 7.921123116382784,
      "height_km": 338.9416110506046,
      "semi_major_axis_km": 6713.2301858061,
      "eccentricity": 8.93e-05,
      "inclination_deg": 53.1592,
      "raan_deg": 209.8274,
      "arg_perigee_deg": 80.2102,
      "mean_anomaly_deg": 339.4656,
      "mean_motion_rev_day": 15.78357775
    },
    {
      "epoch": "2026-03-30T06:00:02.000160Z",
      "apogee_km": 336.87846243291733,
      "perigee_km": 335.30652702361203,
      "latitude_deg": 5.216344045600132,
      "longitude_deg": 107.85829369700848,
      "height_km": 336.536250114311,
      "semi_major_axis_km": 6714.229494728264,
      "eccentricity": 0.00011706,
      "inclination_deg": 53.1591,
      "raan_deg": 209.411,
      "arg_perigee_deg": 79.5709,
      "mean_anomaly_deg": 93.8318,
      "mean_motion_rev_day": 15.78005417
    },
    {
      "epoch": "2026-03-30T14:00:03.000384Z",
      "apogee_km": 341.400131825877,
      "perigee_km": 339.6501890795662,
      "latitude_deg": -53.233442439742234,
      "longitude_deg": 75.38033541157763,
      "height_km": 359.8215534804692,
      "semi_major_axis_km": 6718.662160452722,
      "eccentricity": 0.00013023,
      "inclination_deg": 53.1594,
      "raan_deg": 207.7513,
      "arg_perigee_deg": 64.4757,
      "mean_anomaly_deg": 202.891,
      "mean_motion_rev_day": 15.76444031
    },
    {
      "epoch": "2026-03-30T22:00:00.999936Z",
      "apogee_km": 345.0832629557026,
      "perigee_km": 343.1097496429238,
      "latitude_deg": -0.5926872501316015,
      "longitude_deg": 47.34562694805729,
      "height_km": 344.53146481672786,
      "semi_major_axis_km": 6722.2335062993125,
      "eccentricity": 0.00014679,
      "inclination_deg": 53.1595,
      "raan_deg": 206.0929,
      "arg_perigee_deg": 54.7275,
      "mean_anomaly_deg": 304.6524,
      "mean_motion_rev_day": 15.75187913
    },
    {
      "epoch": "2026-03-31T20:00:01.999008Z",
      "apogee_km": 345.0614038802014,
      "perigee_km": 342.7476771819511,
      "latitude_deg": 15.373342197158046,
      "longitude_deg": -119.49487342632008,
      "height_km": 344.5655894676998,
      "semi_major_axis_km": 6722.041540531076,
      "eccentricity": 0.0001721,
      "inclination_deg": 53.1592,
      "raan_deg": 201.5382,
      "arg_perigee_deg": 47.7621,
      "mean_anomaly_deg": 112.8946,
      "mean_motion_rev_day": 15.75255389
    },
    {
      "epoch": "2026-04-01T20:00:01.999008Z",
      "apogee_km": 344.88644204975844,
      "perigee_km": 343.2704214599644,
      "latitude_deg": 50.726936591102394,
      "longitude_deg": 132.02243343073175,
      "height_km": 349.259343599041,
      "semi_major_axis_km": 6722.215431754861,
      "eccentricity": 0.0001202,
      "inclination_deg": 53.1595,
      "raan_deg": 196.5678,
      "arg_perigee_deg": 61.321,
      "mean_anomaly_deg": 13.514,
      "mean_motion_rev_day": 15.75194266
    },
    {
      "epoch": "2026-04-02T20:00:01.999008Z",
      "apogee_km": 343.92994044597435,
      "perigee_km": 342.7684676299159,
      "latitude_deg": -9.012345890595293,
      "longitude_deg": 53.627449098605624,
      "height_km": 346.10463431089363,
      "semi_major_axis_km": 6721.486204037945,
      "eccentricity": 8.64e-05,
      "inclination_deg": 53.1586,
      "raan_deg": 191.5982,
      "arg_perigee_deg": 102.495,
      "mean_anomaly_deg": 246.396,
      "mean_motion_rev_day": 15.75450617
    },
    {
      "epoch": "2026-04-02T22:00:01.999584Z",
      "apogee_km": 344.17012557239923,
      "perigee_km": 342.9458360485942,
      "latitude_deg": 51.72700549245844,
      "longitude_deg": 139.13759036788105,
      "height_km": 349.1652582143374,
      "semi_major_axis_km": 6721.694980810496,
      "eccentricity": 9.107e-05,
      "inclination_deg": 53.1588,
      "raan_deg": 191.1835,
      "arg_perigee_deg": 85.0166,
      "mean_anomaly_deg": 16.7742,
      "mean_motion_rev_day": 15.75377217
    },
    {
      "epoch": "2026-04-03T15:50:35.586240Z",
      "apogee_km": 344.89103677652656,
      "perigee_km": 343.19032582315776,
      "latitude_deg": -1.0185819862179098e-05,
      "longitude_deg": 117.84915767630251,
      "height_km": 344.37685888884477,
      "semi_major_axis_km": 6722.177681299842,
      "eccentricity": 0.0001265,
      "inclination_deg": 53.1587,
      "raan_deg": 187.4887,
      "arg_perigee_deg": 47.0213,
      "mean_anomaly_deg": 313.0913,
      "mean_motion_rev_day": 15.75207535
    },
    {
      "epoch": "2026-04-04T17:43:44.871456Z",
      "apogee_km": 345.2643450978712,
      "perigee_km": 342.7220354599076,
      "latitude_deg": 4.838003242232253e-05,
      "longitude_deg": 83.13691552786202,
      "height_km": 343.84447594169256,
      "semi_major_axis_km": 6722.130190278889,
      "eccentricity": 0.0001891,
      "inclination_deg": 53.1582,
      "raan_deg": 182.1282,
      "arg_perigee_deg": 33.1379,
      "mean_anomaly_deg": 326.976,
      "mean_motion_rev_day": 15.75224228
    },
    {
      "epoch": "2026-04-05T13:31:27.524928Z",
      "apogee_km": 345.1369609966732,
      "perigee_km": 342.45961417162835,
      "latitude_deg": -5.0051745285365126e-05,
      "longitude_deg": 141.2969589184762,
      "height_km": 343.67826520284115,
      "semi_major_axis_km": 6721.9352875841505,
      "eccentricity": 0.00019915,
      "inclination_deg": 53.1579,
      "raan_deg": 178.029,
      "arg_perigee_deg": 39.3339,
      "mean_anomaly_deg": 320.7825,
      "mean_motion_rev_day": 15.75292739
    },
    {
      "epoch": "2026-04-05T16:34:10.654176Z",
      "apogee_km": 344.9157219876688,
      "perigee_km": 342.56844181226916,
      "latitude_deg": -1.1866936755828858e-05,
      "longitude_deg": 94.86121535118264,
      "height_km": 343.89483770513255,
      "semi_major_axis_km": 6721.879081899969,
      "eccentricity": 0.0001746,
      "inclination_deg": 53.158,
      "raan_deg": 177.398,
      "arg_perigee_deg": 49.4782,
      "mean_anomaly_deg": 310.639,
      "mean_motion_rev_day": 15.75312497
    },
    {
      "epoch": "2026-04-06T06:16:25.960512Z",
      "apogee_km": 344.7109771281166,
      "perigee_km": 342.83946232790095,
      "latitude_deg": -4.358003156002539e-05,
      "longitude_deg": -114.1033995004584,
      "height_km": 344.1202389706585,
      "semi_major_axis_km": 6721.9122197280085,
      "eccentricity": 0.00013921,
      "inclination_deg": 53.1577,
      "raan_deg": 174.56,
      "arg_perigee_deg": 52.4298,
      "mean_anomaly_deg": 307.6848,
      "mean_motion_rev_day": 15.75300848
    },
    {
      "epoch": "2026-04-07T15:46:24.247776Z",
      "apogee_km": 344.4127867780744,
      "perigee_km": 343.17326288149525,
      "latitude_deg": 2.5027913423513126e-05,
      "longitude_deg": 95.09080768096769,
      "height_km": 344.42054197490626,
      "semi_major_axis_km": 6721.930024829784,
      "eccentricity": 9.22e-05,
      "inclination_deg": 53.1571,
      "raan_deg": 167.6228,
      "arg_perigee_deg": 62.2718,
      "mean_anomaly_deg": 297.8396,
      "mean_motion_rev_day": 15.75294589
    },
    {
      "epoch": "2026-04-08T13:05:28.490496Z",
      "apogee_km": 344.78795253025055,
      "perigee_km": 343.07732024918187,
      "latitude_deg": -1.2229950557436047e-06,
      "longitude_deg": 130.0332146402059,
      "height_km": 344.7076053925419,
      "semi_major_axis_km": 6722.069636389716,
      "eccentricity": 0.00012724,
      "inclination_deg": 53.1569,
      "raan_deg": 163.2084,
      "arg_perigee_deg": 80.5601,
      "mean_anomaly_deg": 279.5563,
      "mean_motion_rev_day": 15.75245513
    },
    {
      "epoch": "2026-04-09T13:27:16.613280Z",
      "apogee_km": 344.73541679408754,
      "perigee_km": 343.0414663828069,
      "latitude_deg": -9.461952186922408e-06,
      "longitude_deg": 118.53662592045508,
      "height_km": 344.64812080928925,
      "semi_major_axis_km": 6722.0254415884465,
      "eccentricity": 0.000126,
      "inclination_deg": 53.1573,
      "raan_deg": 158.1629,
      "arg_perigee_deg": 79.4107,
      "mean_anomaly_deg": 280.7055,
      "mean_motion_rev_day": 15.75261048
    },
    {
      "epoch": "2026-04-10T12:17:42.847008Z",
      "apogee_km": 345.9657163101201,
      "perigee_km": 341.6112529811662,
      "latitude_deg": 4.285742464484364e-05,
      "longitude_deg": 130.25952424883377,
      "height_km": 342.74971871517806,
      "semi_major_axis_km": 6721.925484645643,
      "eccentricity": 0.0003239,
      "inclination_deg": 53.1573,
      "raan_deg": 153.4331,
      "arg_perigee_deg": 26.1802,
      "mean_anomaly_deg": 333.9382,
      "mean_motion_rev_day": 15.75296185
    }
  ]
}